STARLINK-31635          
1 59511U 24073A   26068.05962698 -.00006253  00000+0 -21782-3 0  9994
2 59511  43.0012 321.2045 0001359 281.5119  78.5580 15.27589186106085
FLOCK 4G-27             
1 62641U 25009AJ  26068.75406453  .00012587  00000+0  47455-3 0  9991
2 62641  97.3976 150.8631 0000756 322.4974  37.6212 15.27199247 63710
