[{"OBJECT_NAME":"STARLINK-31635","OBJECT_ID":"2024-073A","EPOCH":"2026-03-09T01:25:51.771072","MEAN_MOTION":15.27589186,"ECCENTRICITY":0.00013593,"INCLINATION":43.0012,"RA_OF_ASC_NODE":321.2045,"ARG_OF_PERICENTER":281.5119,"MEAN_ANOMALY":78.558,"EPHEMERIS_TYPE":0,"CLASSIFICATION_TYPE":"U","NORAD_CAT_ID":59511,"ELEMENT_SET_NO":999,"REV_AT_EPOCH":10608,"BSTAR":-0.00021782465,"MEAN_MOTION_DOT":-6.253e-5,"MEAN_MOTION_DDOT":0},{"OBJECT_NAME":"FLOCK 4G-27","OBJECT_ID":"2025-009AJ","EPOCH":"2026-03-09T18:05:51.175392","MEAN_MOTION":15.27199247,"ECCENTRICITY":7.564e-5,"INCLINATION":97.3976,"RA_OF_ASC_NODE":150.8631,"ARG_OF_PERICENTER":322.4974,"MEAN_ANOMALY":37.6212,"EPHEMERIS_TYPE":0,"CLASSIFICATION_TYPE":"U","NORAD_CAT_ID":62641,"ELEMENT_SET_NO":999,"REV_AT_EPOCH":6371,"BSTAR":0.00047455305,"MEAN_MOTION_DOT":0.00012587,"MEAN_MOTION_DDOT":0}]
